{
  "addresses": [
    {
      "locationId": 1,
      "streetNumber": "5",
      "streetName": "Maryland",
      "city": "Saginaw",
      "state": "Michigan",
      "zipcode": 11902
    },
    {
      "locationId": 2,
      "streetNumber": "3",
      "streetName": "Tennessee",
      "city": "Atlanta",
      "state": "Georgia",
      "zipcode": 19484
    },
    {
      "locationId": 3,
      "streetNumber": "02",
      "streetName": "Bashford",
      "city": "Houston",
      "state": "Texas",
      "zipcode": 16268
    },
    {
      "locationId": 4,
      "streetNumber": "192",
      "streetName": "Montana",
      "city": "Berkeley",
      "state": "California",
      "zipcode": 16913
    },
    {
      "locationId": 5,
      "streetNumber": "8026",
      "streetName": "Elka",
      "city": "Washington",
      "state": "District of Columbia",
      "zipcode": 15130
    },
    {
      "locationId": 6,
      "streetNumber": "80092",
      "streetName": "5th",
      "city": "Houston",
      "state": "Texas",
      "zipcode": 17781
    },
    {
      "locationId": 7,
      "streetNumber": "953",
      "streetName": "Anzinger",
      "city": "Flint",
      "state": "Michigan",
      "zipcode": 15194
    },
    {
      "locationId": 8,
      "streetNumber": "64",
      "streetName": "Gulseth",
      "city": "Bloomington",
      "state": "Indiana",
      "zipcode": 17767
    },
    {
      "locationId": 9,
      "streetNumber": "16355",
      "streetName": "Dottie",
      "city": "Kansas City",
      "state": "Missouri",
      "zipcode": 15180
    },
    {
      "locationId": 10,
      "streetNumber": "8",
      "streetName": "Cordelia",
      "city": "Oakland",
      "state": "California",
      "zipcode": 13821
    },
    {
      "locationId": 11,
      "streetNumber": "0173",
      "streetName": "Blaine",
      "city": "El Paso",
      "state": "Texas",
      "zipcode": 15167
    },
    {
      "locationId": 12,
      "streetNumber": "2429",
      "streetName": "Sage",
      "city": "Port Charlotte",
      "state": "Florida",
      "zipcode": 18190
    },
    {
      "locationId": 13,
      "streetNumber": "5945",
      "streetName": "Schiller",
      "city": "Athens",
      "state": "Georgia",
      "zipcode": 18552
    },
    {
      "locationId": 14,
      "streetNumber": "15899",
      "streetName": "Crescent Oaks",
      "city": "Henderson",
      "state": "Nevada",
      "zipcode": 14979
    },
    {
      "locationId": 15,
      "streetNumber": "28",
      "streetName": "Lakewood Gardens",
      "city": "New Orleans",
      "state": "Louisiana",
      "zipcode": 19172
    },
    {
      "locationId": 16,
      "streetNumber": "3",
      "streetName": "Bluestem",
      "city": "Kansas City",
      "state": "Missouri",
      "zipcode": 11165
    },
    {
      "locationId": 17,
      "streetNumber": "47639",
      "streetName": "Green",
      "city": "Monticello",
      "state": "Minnesota",
      "zipcode": 19582
    },
    {
      "locationId": 18,
      "streetNumber": "81",
      "streetName": "Reindahl",
      "city": "Albany",
      "state": "New York",
      "zipcode": 14387
    },
    {
      "locationId": 19,
      "streetNumber": "73",
      "streetName": "Dunning",
      "city": "Fort Worth",
      "state": "Texas",
      "zipcode": 11322
    },
    {
      "locationId": 20,
      "streetNumber": "8602",
      "streetName": "Utah",
      "city": "Austin",
      "state": "Texas",
      "zipcode": 12886
    },
    {
      "locationId": 21,
      "streetNumber": "5",
      "streetName": "Derek",
      "city": "Bryan",
      "state": "Texas",
      "zipcode": 16264
    },
    {
      "locationId": 22,
      "streetNumber": "01",
      "streetName": "Kensington",
      "city": "Indianapolis",
      "state": "Indiana",
      "zipcode": 11258
    },
    {
      "locationId": 23,
      "streetNumber": "5105",
      "streetName": "Welch",
      "city": "Nashville",
      "state": "Tennessee",
      "zipcode": 17841
    },
    {
      "locationId": 24,
      "streetNumber": "73",
      "streetName": "Menomonie",
      "city": "Burbank",
      "state": "California",
      "zipcode": 11219
    },
    {
      "locationId": 25,
      "streetNumber": "61",
      "streetName": "Tomscot",
      "city": "Young America",
      "state": "Minnesota",
      "zipcode": 17731
    },
    {
      "locationId": 26,
      "streetNumber": "93162",
      "streetName": "Stephen",
      "city": "Jefferson City",
      "state": "Missouri",
      "zipcode": 16507
    },
    {
      "locationId": 27,
      "streetNumber": "6680",
      "streetName": "Dottie",
      "city": "Indianapolis",
      "state": "Indiana",
      "zipcode": 13788
    },
    {
      "locationId": 28,
      "streetNumber": "778",
      "streetName": "Chive",
      "city": "Fargo",
      "state": "North Dakota",
      "zipcode": 13402
    },
    {
      "locationId": 29,
      "streetNumber": "0",
      "streetName": "Clove",
      "city": "Inglewood",
      "state": "California",
      "zipcode": 13602
    },
    {
      "locationId": 30,
      "streetNumber": "5",
      "streetName": "Loeprich",
      "city": "Tampa",
      "state": "Florida",
      "zipcode": 13123
    },
    {
      "locationId": 31,
      "streetNumber": "20",
      "streetName": "Derek",
      "city": "Huntington",
      "state": "West Virginia",
      "zipcode": 15913
    },
    {
      "locationId": 32,
      "streetNumber": "518",
      "streetName": "Dapin",
      "city": "Fort Pierce",
      "state": "Florida",
      "zipcode": 12010
    },
    {
      "locationId": 33,
      "streetNumber": "8236",
      "streetName": "Iowa",
      "city": "Cincinnati",
      "state": "Ohio",
      "zipcode": 11156
    },
    {
      "locationId": 34,
      "streetNumber": "23",
      "streetName": "Northview",
      "city": "Cleveland",
      "state": "Ohio",
      "zipcode": 14821
    },
    {
      "locationId": 35,
      "streetNumber": "095",
      "streetName": "Farwell",
      "city": "Asheville",
      "state": "North Carolina",
      "zipcode": 18226
    },
    {
      "locationId": 36,
      "streetNumber": "58",
      "streetName": "Fremont",
      "city": "Baton Rouge",
      "state": "Louisiana",
      "zipcode": 19827
    },
    {
      "locationId": 37,
      "streetNumber": "339",
      "streetName": "Jenna",
      "city": "Battle Creek",
      "state": "Michigan",
      "zipcode": 15617
    },
    {
      "locationId": 38,
      "streetNumber": "79505",
      "streetName": "Ilene",
      "city": "New Orleans",
      "state": "Louisiana",
      "zipcode": 16309
    },
    {
      "locationId": 39,
      "streetNumber": "18563",
      "streetName": "Dapin",
      "city": "Baton Rouge",
      "state": "Louisiana",
      "zipcode": 13694
    },
    {
      "locationId": 40,
      "streetNumber": "9",
      "streetName": "Luster",
      "city": "Atlanta",
      "state": "Georgia",
      "zipcode": 13308
    },
    {
      "locationId": 41,
      "streetNumber": "621",
      "streetName": "Dovetail",
      "city": "Washington",
      "state": "District of Columbia",
      "zipcode": 17711
    },
    {
      "locationId": 42,
      "streetNumber": "1688",
      "streetName": "Cascade",
      "city": "Staten Island",
      "state": "New York",
      "zipcode": 14069
    },
    {
      "locationId": 43,
      "streetNumber": "7192",
      "streetName": "Johnson",
      "city": "Las Vegas",
      "state": "Nevada",
      "zipcode": 18435
    },
    {
      "locationId": 44,
      "streetNumber": "48838",
      "streetName": "5th",
      "city": "Houston",
      "state": "Texas",
      "zipcode": 18743
    },
    {
      "locationId": 45,
      "streetNumber": "67366",
      "streetName": "Village",
      "city": "Grand Forks",
      "state": "North Dakota",
      "zipcode": 13399
    },
    {
      "locationId": 46,
      "streetNumber": "6438",
      "streetName": "Mosinee",
      "city": "Dayton",
      "state": "Ohio",
      "zipcode": 14259
    },
    {
      "locationId": 47,
      "streetNumber": "2757",
      "streetName": "Carey",
      "city": "Corpus Christi",
      "state": "Texas",
      "zipcode": 10153
    },
    {
      "locationId": 48,
      "streetNumber": "81378",
      "streetName": "Shopko",
      "city": "Honolulu",
      "state": "Hawaii",
      "zipcode": 11298
    },
    {
      "locationId": 49,
      "streetNumber": "616",
      "streetName": "Monterey",
      "city": "Toledo",
      "state": "Ohio",
      "zipcode": 19520
    },
    {
      "locationId": 50,
      "streetNumber": "74",
      "streetName": "Pine View",
      "city": "Lakeland",
      "state": "Florida",
      "zipcode": 10500
    },
    {
      "locationId": 51,
      "streetNumber": "778",
      "streetName": "5th",
      "city": "Bridgeport",
      "state": "Connecticut",
      "zipcode": 10966
    },
    {
      "locationId": 52,
      "streetNumber": "06",
      "streetName": "Fremont",
      "city": "North Hollywood",
      "state": "California",
      "zipcode": 17611
    },
    {
      "locationId": 53,
      "streetNumber": "85251",
      "streetName": "Merry",
      "city": "Meridian",
      "state": "Mississippi",
      "zipcode": 14596
    },
    {
      "locationId": 54,
      "streetNumber": "45",
      "streetName": "Becker",
      "city": "Florence",
      "state": "South Carolina",
      "zipcode": 16256
    },
    {
      "locationId": 55,
      "streetNumber": "3",
      "streetName": "Clove",
      "city": "Portland",
      "state": "Maine",
      "zipcode": 18470
    },
    {
      "locationId": 56,
      "streetNumber": "4",
      "streetName": "Village Green",
      "city": "Columbus",
      "state": "Ohio",
      "zipcode": 11912
    },
    {
      "locationId": 57,
      "streetNumber": "557",
      "streetName": "Steensland",
      "city": "Oklahoma City",
      "state": "Oklahoma",
      "zipcode": 19648
    },
    {
      "locationId": 58,
      "streetNumber": "39989",
      "streetName": "Blaine",
      "city": "Honolulu",
      "state": "Hawaii",
      "zipcode": 19800
    },
    {
      "locationId": 59,
      "streetNumber": "081",
      "streetName": "Meadow Valley",
      "city": "Detroit",
      "state": "Michigan",
      "zipcode": 15651
    },
    {
      "locationId": 60,
      "streetNumber": "9",
      "streetName": "Ludington",
      "city": "Shawnee Mission",
      "state": "Kansas",
      "zipcode": 17100
    },
    {
      "locationId": 61,
      "streetNumber": "6",
      "streetName": "Carpenter",
      "city": "Humble",
      "state": "Texas",
      "zipcode": 11256
    },
    {
      "locationId": 62,
      "streetNumber": "1326",
      "streetName": "Hoard",
      "city": "El Paso",
      "state": "Texas",
      "zipcode": 10051
    },
    {
      "locationId": 63,
      "streetNumber": "7",
      "streetName": "Crownhardt",
      "city": "Albany",
      "state": "New York",
      "zipcode": 19703
    },
    {
      "locationId": 64,
      "streetNumber": "40717",
      "streetName": "Marcy",
      "city": "Canton",
      "state": "Ohio",
      "zipcode": 16090
    },
    {
      "locationId": 65,
      "streetNumber": "3623",
      "streetName": "Havey",
      "city": "Houston",
      "state": "Texas",
      "zipcode": 19112
    },
    {
      "locationId": 66,
      "streetNumber": "134",
      "streetName": "Farwell",
      "city": "Kansas City",
      "state": "Missouri",
      "zipcode": 12117
    },
    {
      "locationId": 67,
      "streetNumber": "7",
      "streetName": "Cherokee",
      "city": "Chicago",
      "state": "Illinois",
      "zipcode": 13675
    },
    {
      "locationId": 68,
      "streetNumber": "778",
      "streetName": "Fordem",
      "city": "Springfield",
      "state": "Illinois",
      "zipcode": 11127
    },
    {
      "locationId": 69,
      "streetNumber": "07",
      "streetName": "Maywood",
      "city": "Richmond",
      "state": "Virginia",
      "zipcode": 13382
    },
    {
      "locationId": 70,
      "streetNumber": "1",
      "streetName": "Paget",
      "city": "Denver",
      "state": "Colorado",
      "zipcode": 18226
    },
    {
      "locationId": 71,
      "streetNumber": "57682",
      "streetName": "Gulseth",
      "city": "Daytona Beach",
      "state": "Florida",
      "zipcode": 14381
    },
    {
      "locationId": 72,
      "streetNumber": "9",
      "streetName": "Del Sol",
      "city": "Sparks",
      "state": "Nevada",
      "zipcode": 13731
    },
    {
      "locationId": 73,
      "streetNumber": "61229",
      "streetName": "Autumn Leaf",
      "city": "Colorado Springs",
      "state": "Colorado",
      "zipcode": 18736
    },
    {
      "locationId": 74,
      "streetNumber": "3480",
      "streetName": "Little Fleur",
      "city": "Anchorage",
      "state": "Alaska",
      "zipcode": 19067
    },
    {
      "locationId": 75,
      "streetNumber": "30954",
      "streetName": "Chive",
      "city": "Shawnee Mission",
      "state": "Kansas",
      "zipcode": 17302
    },
    {
      "locationId": 76,
      "streetNumber": "2",
      "streetName": "Vermont",
      "city": "Youngstown",
      "state": "Ohio",
      "zipcode": 11006
    },
    {
      "locationId": 77,
      "streetNumber": "0",
      "streetName": "Chive",
      "city": "Philadelphia",
      "state": "Pennsylvania",
      "zipcode": 12767
    },
    {
      "locationId": 78,
      "streetNumber": "5",
      "streetName": "Algoma",
      "city": "Canton",
      "state": "Ohio",
      "zipcode": 12373
    },
    {
      "locationId": 79,
      "streetNumber": "063",
      "streetName": "Cordelia",
      "city": "Riverside",
      "state": "California",
      "zipcode": 16673
    },
    {
      "locationId": 80,
      "streetNumber": "2046",
      "streetName": "Barby",
      "city": "Norwalk",
      "state": "Connecticut",
      "zipcode": 14658
    },
    {
      "locationId": 81,
      "streetNumber": "413",
      "streetName": "Sugar",
      "city": "Greensboro",
      "state": "North Carolina",
      "zipcode": 16850
    },
    {
      "locationId": 82,
      "streetNumber": "39",
      "streetName": "Toban",
      "city": "Detroit",
      "state": "Michigan",
      "zipcode": 15471
    },
    {
      "locationId": 83,
      "streetNumber": "522",
      "streetName": "Ridgeway",
      "city": "Chattanooga",
      "state": "Tennessee",
      "zipcode": 11169
    },
    {
      "locationId": 84,
      "streetNumber": "7",
      "streetName": "Veith",
      "city": "Pittsburgh",
      "state": "Pennsylvania",
      "zipcode": 10497
    },
    {
      "locationId": 85,
      "streetNumber": "5",
      "streetName": "Parkside",
      "city": "Sioux Falls",
      "state": "South Dakota",
      "zipcode": 11264
    },
    {
      "locationId": 86,
      "streetNumber": "157",
      "streetName": "Norway Maple",
      "city": "Santa Fe",
      "state": "New Mexico",
      "zipcode": 11498
    },
    {
      "locationId": 87,
      "streetNumber": "9956",
      "streetName": "Carpenter",
      "city": "Tulsa",
      "state": "Oklahoma",
      "zipcode": 12315
    },
    {
      "locationId": 88,
      "streetNumber": "38",
      "streetName": "Anzinger",
      "city": "Toledo",
      "state": "Ohio",
      "zipcode": 14487
    },
    {
      "locationId": 89,
      "streetNumber": "59093",
      "streetName": "Charing Cross",
      "city": "Canton",
      "state": "Ohio",
      "zipcode": 13420
    },
    {
      "locationId": 90,
      "streetNumber": "9",
      "streetName": "Pond",
      "city": "Madison",
      "state": "Wisconsin",
      "zipcode": 11088
    },
    {
      "locationId": 91,
      "streetNumber": "6",
      "streetName": "Montana",
      "city": "Montgomery",
      "state": "Alabama",
      "zipcode": 11693
    },
    {
      "locationId": 92,
      "streetNumber": "6112",
      "streetName": "Eagle Crest",
      "city": "Charlotte",
      "state": "North Carolina",
      "zipcode": 19611
    },
    {
      "locationId": 93,
      "streetNumber": "97077",
      "streetName": "Clyde Gallagher",
      "city": "Jackson",
      "state": "Tennessee",
      "zipcode": 11092
    },
    {
      "locationId": 94,
      "streetNumber": "7",
      "streetName": "Montana",
      "city": "Tuscaloosa",
      "state": "Alabama",
      "zipcode": 11135
    },
    {
      "locationId": 95,
      "streetNumber": "42",
      "streetName": "School",
      "city": "Lake Worth",
      "state": "Florida",
      "zipcode": 18699
    },
    {
      "locationId": 96,
      "streetNumber": "1537",
      "streetName": "Summerview",
      "city": "San Jose",
      "state": "California",
      "zipcode": 18621
    },
    {
      "locationId": 97,
      "streetNumber": "2",
      "streetName": "Norway Maple",
      "city": "Richmond",
      "state": "Virginia",
      "zipcode": 18513
    },
    {
      "locationId": 98,
      "streetNumber": "14776",
      "streetName": "Banding",
      "city": "North Hollywood",
      "state": "California",
      "zipcode": 18359
    },
    {
      "locationId": 99,
      "streetNumber": "16073",
      "streetName": "Lien",
      "city": "Houston",
      "state": "Texas",
      "zipcode": 17767
    }
  ]
}
